CCSDS_OMM_VERS = 2.0
CREATION_DATE  = 
ORIGINATOR     = 

OBJECT_NAME    = 2025-313AG
OBJECT_ID      = 2025-313AG
CENTER_NAME    = EARTH
REF_FRAME      = TEME
TIME_SYSTEM    = UTC
MEAN_ELEMENT_THEORY = SGP/SGP4

EPOCH          = 2026-01-12T05:23:57.275808
MEAN_MOTION    = 15.20180410
ECCENTRICITY   = .00141478
INCLINATION    = 97.4094
RA_OF_ASC_NODE = 89.4385
ARG_OF_PERICENTER = 188.8225
MEAN_ANOMALY   = 171.2764

EPHEMERIS_TYPE = 0
CLASSIFICATION_TYPE = U
NORAD_CAT_ID   = 67278
ELEMENT_SET_NO = 999
REV_AT_EPOCH   = 224
BSTAR          = .37185769E-3
MEAN_MOTION_DOT = .8006E-4
MEAN_MOTION_DDOT = 0

CCSDS_OMM_VERS = 2.0
CREATION_DATE  = 
ORIGINATOR     = 

OBJECT_NAME    = GALAPAGOS-UTE-SWSU
OBJECT_ID      = 2025-313AH
CENTER_NAME    = EARTH
REF_FRAME      = TEME
TIME_SYSTEM    = UTC
MEAN_ELEMENT_THEORY = SGP/SGP4

EPOCH          = 2026-01-12T06:58:03.738720
MEAN_MOTION    = 15.20253160
ECCENTRICITY   = .00147454
INCLINATION    = 97.4105
RA_OF_ASC_NODE = 89.5057
ARG_OF_PERICENTER = 185.5412
MEAN_ANOMALY   = 174.5663

EPHEMERIS_TYPE = 0
CLASSIFICATION_TYPE = U
NORAD_CAT_ID   = 67279
ELEMENT_SET_NO = 999
REV_AT_EPOCH   = 224
BSTAR          = .41471422E-3
MEAN_MOTION_DOT = .8959E-4
MEAN_MOTION_DDOT = 0

CCSDS_OMM_VERS = 2.0
CREATION_DATE  = 
ORIGINATOR     = 

OBJECT_NAME    = 2025-313AJ
OBJECT_ID      = 2025-313AJ
CENTER_NAME    = EARTH
REF_FRAME      = TEME
TIME_SYSTEM    = UTC
MEAN_ELEMENT_THEORY = SGP/SGP4

EPOCH          = 2026-01-12T06:53:14.063712
MEAN_MOTION    = 15.20555109
ECCENTRICITY   = .00136645
INCLINATION    = 97.4176
RA_OF_ASC_NODE = 89.5110
ARG_OF_PERICENTER = 182.0478
MEAN_ANOMALY   = 178.0704

EPHEMERIS_TYPE = 0
CLASSIFICATION_TYPE = U
NORAD_CAT_ID   = 67280
ELEMENT_SET_NO = 999
REV_AT_EPOCH   = 224
BSTAR          = .30230785E-3
MEAN_MOTION_DOT = .6565E-4
MEAN_MOTION_DDOT = 0

CCSDS_OMM_VERS = 2.0
CREATION_DATE  = 
ORIGINATOR     = 

OBJECT_NAME    = 2025-313AK
OBJECT_ID      = 2025-313AK
CENTER_NAME    = EARTH
REF_FRAME      = TEME
TIME_SYSTEM    = UTC
MEAN_ELEMENT_THEORY = SGP/SGP4

EPOCH          = 2026-01-12T06:51:58.549248
MEAN_MOTION    = 15.20646642
ECCENTRICITY   = .00123805
INCLINATION    = 97.4060
RA_OF_ASC_NODE = 89.5006
ARG_OF_PERICENTER = 180.7692
MEAN_ANOMALY   = 179.3526

EPHEMERIS_TYPE = 0
CLASSIFICATION_TYPE = U
NORAD_CAT_ID   = 67281
ELEMENT_SET_NO = 999
REV_AT_EPOCH   = 224
BSTAR          = .30888723E-3
MEAN_MOTION_DOT = .6725E-4
MEAN_MOTION_DDOT = 0

CCSDS_OMM_VERS = 2.0
CREATION_DATE  = 
ORIGINATOR     = 

OBJECT_NAME    = 2025-313AL
OBJECT_ID      = 2025-313AL
CENTER_NAME    = EARTH
REF_FRAME      = TEME
TIME_SYSTEM    = UTC
MEAN_ELEMENT_THEORY = SGP/SGP4

EPOCH          = 2026-01-12T06:46:56.297856
MEAN_MOTION    = 15.21024790
ECCENTRICITY   = .00111527
INCLINATION    = 97.4108
RA_OF_ASC_NODE = 89.5026
ARG_OF_PERICENTER = 179.5782
MEAN_ANOMALY   = 180.5465

EPHEMERIS_TYPE = 0
CLASSIFICATION_TYPE = U
NORAD_CAT_ID   = 67282
ELEMENT_SET_NO = 999
REV_AT_EPOCH   = 224
BSTAR          = .31888251E-3
MEAN_MOTION_DOT = .702E-4
MEAN_MOTION_DDOT = 0

CCSDS_OMM_VERS = 2.0
CREATION_DATE  = 
ORIGINATOR     = 

OBJECT_NAME    = 2025-313AM
OBJECT_ID      = 2025-313AM
CENTER_NAME    = EARTH
REF_FRAME      = TEME
TIME_SYSTEM    = UTC
MEAN_ELEMENT_THEORY = SGP/SGP4

EPOCH          = 2026-01-12T06:46:06.374208
MEAN_MOTION    = 15.21144914
ECCENTRICITY   = .00110507
INCLINATION    = 97.4117
RA_OF_ASC_NODE = 89.5052
ARG_OF_PERICENTER = 179.5674
MEAN_ANOMALY   = 180.5573

EPHEMERIS_TYPE = 0
CLASSIFICATION_TYPE = U
NORAD_CAT_ID   = 67283
ELEMENT_SET_NO = 999
REV_AT_EPOCH   = 224
BSTAR          = .49353185E-3
MEAN_MOTION_DOT = .10946E-3
MEAN_MOTION_DDOT = 0

CCSDS_OMM_VERS = 2.0
CREATION_DATE  = 
ORIGINATOR     = 

OBJECT_NAME    = 2025-313AN
OBJECT_ID      = 2025-313AN
CENTER_NAME    = EARTH
REF_FRAME      = TEME
TIME_SYSTEM    = UTC
MEAN_ELEMENT_THEORY = SGP/SGP4

EPOCH          = 2026-01-12T06:46:58.509696
MEAN_MOTION    = 15.20980122
ECCENTRICITY   = .00109909
INCLINATION    = 97.4101
RA_OF_ASC_NODE = 89.5011
ARG_OF_PERICENTER = 179.5030
MEAN_ANOMALY   = 180.6219

EPHEMERIS_TYPE = 0
CLASSIFICATION_TYPE = U
NORAD_CAT_ID   = 67284
ELEMENT_SET_NO = 999
REV_AT_EPOCH   = 224
BSTAR          = .18909749E-3
MEAN_MOTION_DOT = .4127E-4
MEAN_MOTION_DDOT = 0

CCSDS_OMM_VERS = 2.0
CREATION_DATE  = 
ORIGINATOR     = 

OBJECT_NAME    = NASBSAT-2
OBJECT_ID      = 2025-313AP
CENTER_NAME    = EARTH
REF_FRAME      = TEME
TIME_SYSTEM    = UTC
MEAN_ELEMENT_THEORY = SGP/SGP4

EPOCH          = 2026-01-12T06:45:06.663168
MEAN_MOTION    = 15.21206263
ECCENTRICITY   = .00106526
INCLINATION    = 97.4094
RA_OF_ASC_NODE = 89.5010
ARG_OF_PERICENTER = 180.9163
MEAN_ANOMALY   = 179.2055

EPHEMERIS_TYPE = 0
CLASSIFICATION_TYPE = U
NORAD_CAT_ID   = 67285
ELEMENT_SET_NO = 999
REV_AT_EPOCH   = 224
BSTAR          = .42985886E-3
MEAN_MOTION_DOT = .9539E-4
MEAN_MOTION_DDOT = 0

CCSDS_OMM_VERS = 2.0
CREATION_DATE  = 
ORIGINATOR     = 

OBJECT_NAME    = 2025-313AQ
OBJECT_ID      = 2025-313AQ
CENTER_NAME    = EARTH
REF_FRAME      = TEME
TIME_SYSTEM    = UTC
MEAN_ELEMENT_THEORY = SGP/SGP4

EPOCH          = 2026-01-12T06:44:24.481824
MEAN_MOTION    = 15.21238767
ECCENTRICITY   = .00103844
INCLINATION    = 97.4115
RA_OF_ASC_NODE = 89.5144
ARG_OF_PERICENTER = 176.9539
MEAN_ANOMALY   = 183.1762

EPHEMERIS_TYPE = 0
CLASSIFICATION_TYPE = U
NORAD_CAT_ID   = 67286
ELEMENT_SET_NO = 999
REV_AT_EPOCH   = 224
BSTAR          = .39475467E-3
MEAN_MOTION_DOT = .8761E-4
MEAN_MOTION_DDOT = 0

CCSDS_OMM_VERS = 2.0
CREATION_DATE  = 
ORIGINATOR     = 

OBJECT_NAME    = LUCA
OBJECT_ID      = 2025-313AR
CENTER_NAME    = EARTH
REF_FRAME      = TEME
TIME_SYSTEM    = UTC
MEAN_ELEMENT_THEORY = SGP/SGP4

EPOCH          = 2026-01-12T06:43:46.422624
MEAN_MOTION    = 15.21321391
ECCENTRICITY   = .00102597
INCLINATION    = 97.4115
RA_OF_ASC_NODE = 89.5154
ARG_OF_PERICENTER = 177.4707
MEAN_ANOMALY   = 182.6583

EPHEMERIS_TYPE = 0
CLASSIFICATION_TYPE = U
NORAD_CAT_ID   = 67287
ELEMENT_SET_NO = 999
REV_AT_EPOCH   = 224
BSTAR          = .48340052E-3
MEAN_MOTION_DOT = .10773E-3
MEAN_MOTION_DDOT = 0

CCSDS_OMM_VERS = 2.0
CREATION_DATE  = 
ORIGINATOR     = 

OBJECT_NAME    = 2025-313AS
OBJECT_ID      = 2025-313AS
CENTER_NAME    = EARTH
REF_FRAME      = TEME
TIME_SYSTEM    = UTC
MEAN_ELEMENT_THEORY = SGP/SGP4

EPOCH          = 2026-01-12T06:44:35.152224
MEAN_MOTION    = 15.21194182
ECCENTRICITY   = .00121241
INCLINATION    = 97.4104
RA_OF_ASC_NODE = 89.5113
ARG_OF_PERICENTER = 170.2758
MEAN_ANOMALY   = 189.8715

EPHEMERIS_TYPE = 0
CLASSIFICATION_TYPE = U
NORAD_CAT_ID   = 67288
ELEMENT_SET_NO = 999
REV_AT_EPOCH   = 224
BSTAR          = .308574E-3
MEAN_MOTION_DOT = .6826E-4
MEAN_MOTION_DDOT = 0

CCSDS_OMM_VERS = 2.0
CREATION_DATE  = 
ORIGINATOR     = 

OBJECT_NAME    = NASBSAT-1
OBJECT_ID      = 2025-313AT
CENTER_NAME    = EARTH
REF_FRAME      = TEME
TIME_SYSTEM    = UTC
MEAN_ELEMENT_THEORY = SGP/SGP4

EPOCH          = 2026-01-12T06:42:40.595328
MEAN_MOTION    = 15.21462942
ECCENTRICITY   = .00101786
INCLINATION    = 97.4117
RA_OF_ASC_NODE = 89.5168
ARG_OF_PERICENTER = 177.9439
MEAN_ANOMALY   = 182.1841

EPHEMERIS_TYPE = 0
CLASSIFICATION_TYPE = U
NORAD_CAT_ID   = 67289
ELEMENT_SET_NO = 999
REV_AT_EPOCH   = 224
BSTAR          = .62577492E-3
MEAN_MOTION_DOT = .1403E-3
MEAN_MOTION_DDOT = 0

