2025-313AG              
1 67278U 25313AG  26012.22496847  .00008006  00000+0  37186-3 0  9998
2 67278  97.4094  89.4385 0014147 188.8225 171.2764 15.20180410  2241
GALAPAGOS-UTE-SWSU      
1 67279U 25313AH  26012.29032105  .00008959  00000+0  41471-3 0  9998
2 67279  97.4105  89.5057 0014745 185.5412 174.5663 15.20253160  2245
2025-313AJ              
1 67280U 25313AJ  26012.28696833  .00006565  00000+0  30231-3 0  9996
2 67280  97.4176  89.5110 0013664 182.0478 178.0704 15.20555109  2241
2025-313AK              
1 67281U 25313AK  26012.28609432  .00006725  00000+0  30889-3 0  9993
2 67281  97.4060  89.5006 0012380 180.7692 179.3526 15.20646642  2244
2025-313AL              
1 67282U 25313AL  26012.28259604  .00007020  00000+0  31888-3 0  9995
2 67282  97.4108  89.5026 0011152 179.5782 180.5465 15.21024790  2243
2025-313AM              
1 67283U 25313AM  26012.28201822  .00010946  00000+0  49353-3 0  9992
2 67283  97.4117  89.5052 0011050 179.5674 180.5573 15.21144914  2241
2025-313AN              
1 67284U 25313AN  26012.28262164  .00004127  00000+0  18910-3 0  9998
2 67284  97.4101  89.5011 0010990 179.5030 180.6219 15.20980122  2244
NASBSAT-2               
1 67285U 25313AP  26012.28132712  .00009539  00000+0  42986-3 0  9996
2 67285  97.4094  89.5010 0010652 180.9163 179.2055 15.21206263  2243
2025-313AQ              
1 67286U 25313AQ  26012.28083891  .00008761  00000+0  39475-3 0  9995
2 67286  97.4115  89.5144 0010384 176.9539 183.1762 15.21238767  2243
LUCA                    
1 67287U 25313AR  26012.28039841  .00010773  00000+0  48340-3 0  9999
2 67287  97.4115  89.5154 0010259 177.4707 182.6583 15.21321391  2240
2025-313AS              
1 67288U 25313AS  26012.28096241  .00006826  00000+0  30857-3 0  9995
2 67288  97.4104  89.5113 0012124 170.2758 189.8715 15.21194182  2246
NASBSAT-1               
1 67289U 25313AT  26012.27963652  .00014030  00000+0  62577-3 0  9994
2 67289  97.4117  89.5168 0010178 177.9439 182.1841 15.21462942  2246
